format  = 'OEF1.1'       ! file format
rectype = 'ML'           ! record type (1L/ML)
refsys  = ECLM J2000     ! default reference system
END_OF_HEADER
2002CB19
! Equinoctial elements: a, e*sin(LP), e*cos(LP), tan(i/2)*sin(LN), tan(i/2)*cos(LN), mean long.
 EQU   1.28434850240417E+00  0.329030474896192  0.310042153232757 -0.100200263824773  0.112139630174967 194.5513342111758
 MJD     52470.00000000 TDT
 MAG  24.763  0.150
! RMS    3.76544E-04   1.79426E-04   1.21644E-04   4.67263E-05   5.20542E-05   6.80561E-02
! EIG   1.39637E-08   3.04650E-08   3.28417E-07   1.24056E-06   3.98477E-06   1.26670E-03
! WEA  -0.29726  -0.14165  -0.09600   0.03688  -0.04109   0.93771
 COV   1.417853371830821E-07  6.756133183970059E-08  4.577968151752054E-08
 COV  -1.759217134253662E-08  1.959816583387259E-08 -2.562564859722197E-05
 COV   3.219383995497099E-08  2.181582935714851E-08 -8.382390613242352E-09
 COV   9.338256555440866E-09 -1.221091666194016E-05  1.479717500482535E-08
 COV  -5.680444878083497E-09  6.328333766620999E-09 -8.275616060335416E-06
 COV   2.183342675083117E-09 -2.432294639507881E-09  3.179539621908138E-06
 COV   2.709638931780591E-09 -3.542112659350100E-06  4.631628279669136E-03
 NOR   2.627140522953077E+15  1.035587776817113E+15  2.004588530955474E+15
 NOR  -1.056374391007540E+14 -1.020692997995106E+14  2.084174129963149E+13
 NOR   4.265840063418263E+14  7.952311693506421E+14 -1.198743378351790E+14
 NOR  -1.024061182752812E+14  8.279168130782334E+12  1.531077326939849E+15
 NOR  -1.050795154831368E+14 -9.760433131534597E+13  1.592061482949593E+13
 NOR   6.294509566055866E+14  5.350030957415642E+14 -1.111212704441583E+12
 NOR   4.582912231818413E+14 -1.025890824455883E+12  1.655641483274716E+11
